{
  "links" : {
    "next" : "https://api.nasa.gov/neo/rest/v1/feed?start_date=2009-10-09&end_date=2009-10-09&detailed=true&api_key=t0TVs3DtDT2H8Oy2Zy8m2eVrNsAVKAexjcZXUckd",
    "prev" : "https://api.nasa.gov/neo/rest/v1/feed?start_date=2009-10-07&end_date=2009-10-07&detailed=true&api_key=t0TVs3DtDT2H8Oy2Zy8m2eVrNsAVKAexjcZXUckd",
    "self" : "https://api.nasa.gov/neo/rest/v1/feed?start_date=2009-10-08&end_date=2009-10-08&detailed=true&api_key=t0TVs3DtDT2H8Oy2Zy8m2eVrNsAVKAexjcZXUckd"
  },
  "element_count" : 11,
  "near_earth_objects" : {
    "2009-10-08" : [ {
      "links" : {
        "self" : "https://api.nasa.gov/neo/rest/v1/neo/3471140?api_key=t0TVs3DtDT2H8Oy2Zy8m2eVrNsAVKAexjcZXUckd"
      },
      "neo_reference_id" : "3471140",
      "name" : "(2009 TK)",
      "nasa_jpl_url" : "http://ssd.jpl.nasa.gov/sbdb.cgi?sstr=3471140",
      "absolute_magnitude_h" : 22.3,
      "estimated_diameter" : {
        "kilometers" : {
          "estimated_diameter_min" : 0.0921626549,
          "estimated_diameter_max" : 0.2060819612
        },
        "meters" : {
          "estimated_diameter_min" : 92.1626548503,
          "estimated_diameter_max" : 206.0819612321
        },
        "miles" : {
          "estimated_diameter_min" : 0.057267201,
          "estimated_diameter_max" : 0.1280533543
        },
        "feet" : {
          "estimated_diameter_min" : 302.370924539,
          "estimated_diameter_max" : 676.1219416887
        }
      },
      "is_potentially_hazardous_asteroid" : false,
      "close_approach_data" : [ {
        "close_approach_date" : "2009-10-08",
        "epoch_date_close_approach" : 1254985200000,
        "relative_velocity" : {
          "kilometers_per_second" : "11.215241792",
          "kilometers_per_hour" : "40374.870451231",
          "miles_per_hour" : "25087.374364544"
        },
        "miss_distance" : {
          "astronomical" : "0.0668135953",
          "lunar" : "25.9904880524",
          "kilometers" : "9995172",
          "miles" : "6210712"
        },
        "orbiting_body" : "Earth"
      } ],
      "orbital_data" : {
        "orbit_id" : "28",
        "orbit_determination_date" : "2017-04-06 08:59:43",
        "orbit_uncertainty" : "0",
        "minimum_orbit_intersection" : ".041028",
        "jupiter_tisserand_invariant" : "4.898",
        "epoch_osculation" : "2458000.5",
        "eccentricity" : ".2047161457147762",
        "semi_major_axis" : "1.308390985845839",
        "inclination" : "20.17207426647966",
        "ascending_node_longitude" : "192.7673164633848",
        "orbital_period" : "546.6441967808555",
        "perihelion_distance" : "1.040542226135523",
        "perihelion_argument" : "181.3336367991311",
        "aphelion_distance" : "1.576239745556155",
        "perihelion_time" : "2457848.947756418292",
        "mean_anomaly" : "99.8067993965861",
        "mean_motion" : ".658563654603875",
        "equinox" : "J2000"
      }
    }, {
      "links" : {
        "self" : "https://api.nasa.gov/neo/rest/v1/neo/3602839?api_key=t0TVs3DtDT2H8Oy2Zy8m2eVrNsAVKAexjcZXUckd"
      },
      "neo_reference_id" : "3602839",
      "name" : "(2012 HP13)",
      "nasa_jpl_url" : "http://ssd.jpl.nasa.gov/sbdb.cgi?sstr=3602839",
      "absolute_magnitude_h" : 24.2,
      "estimated_diameter" : {
        "kilometers" : {
          "estimated_diameter_min" : 0.0384197891,
          "estimated_diameter_max" : 0.0859092601
        },
        "meters" : {
          "estimated_diameter_min" : 38.4197891064,
          "estimated_diameter_max" : 85.9092601232
        },
        "miles" : {
          "estimated_diameter_min" : 0.0238729428,
          "estimated_diameter_max" : 0.0533815229
        },
        "feet" : {
          "estimated_diameter_min" : 126.0491808919,
          "estimated_diameter_max" : 281.8545369825
        }
      },
      "is_potentially_hazardous_asteroid" : false,
      "close_approach_data" : [ {
        "close_approach_date" : "2009-10-08",
        "epoch_date_close_approach" : 1254985200000,
        "relative_velocity" : {
          "kilometers_per_second" : "12.7522832351",
          "kilometers_per_hour" : "45908.2196464309",
          "miles_per_hour" : "28525.5823686393"
        },
        "miss_distance" : {
          "astronomical" : "0.2808684879",
          "lunar" : "109.2578430176",
          "kilometers" : "42017328",
          "miles" : "26108358"
        },
        "orbiting_body" : "Earth"
      } ],
      "orbital_data" : {
        "orbit_id" : "18",
        "orbit_determination_date" : "2017-04-06 08:49:59",
        "orbit_uncertainty" : "1",
        "minimum_orbit_intersection" : ".000598705",
        "jupiter_tisserand_invariant" : "6.064",
        "epoch_osculation" : "2458000.5",
        "eccentricity" : ".1761363543547804",
        "semi_major_axis" : ".9863184916697846",
        "inclination" : "23.01931845137059",
        "ascending_node_longitude" : "37.08913446319676",
        "orbital_period" : "357.7866979431142",
        "perihelion_distance" : ".8125919483143629",
        "perihelion_argument" : "286.5373774214684",
        "aphelion_distance" : "1.160045035025206",
        "perihelion_time" : "2457920.341094649508",
        "mean_anomaly" : "80.65477585409083",
        "mean_motion" : "1.006186093752534",
        "equinox" : "J2000"
      }
    }, {
      "links" : {
        "self" : "https://api.nasa.gov/neo/rest/v1/neo/3634154?api_key=t0TVs3DtDT2H8Oy2Zy8m2eVrNsAVKAexjcZXUckd"
      },
      "neo_reference_id" : "3634154",
      "name" : "(2013 GM3)",
      "nasa_jpl_url" : "http://ssd.jpl.nasa.gov/sbdb.cgi?sstr=3634154",
      "absolute_magnitude_h" : 26.3,
      "estimated_diameter" : {
        "kilometers" : {
          "estimated_diameter_min" : 0.0146067964,
          "estimated_diameter_max" : 0.0326617897
        },
        "meters" : {
          "estimated_diameter_min" : 14.6067964271,
          "estimated_diameter_max" : 32.6617897446
        },
        "miles" : {
          "estimated_diameter_min" : 0.0090762397,
          "estimated_diameter_max" : 0.020295089
        },
        "feet" : {
          "estimated_diameter_min" : 47.92256199,
          "estimated_diameter_max" : 107.1581062656
        }
      },
      "is_potentially_hazardous_asteroid" : false,
      "close_approach_data" : [ {
        "close_approach_date" : "2009-10-08",
        "epoch_date_close_approach" : 1254985200000,
        "relative_velocity" : {
          "kilometers_per_second" : "13.0510337026",
          "kilometers_per_hour" : "46983.7213294784",
          "miles_per_hour" : "29193.8572894195"
        },
        "miss_distance" : {
          "astronomical" : "0.3908434094",
          "lunar" : "152.0380859375",
          "kilometers" : "58469344",
          "miles" : "36331168"
        },
        "orbiting_body" : "Earth"
      } ],
      "orbital_data" : {
        "orbit_id" : "18",
        "orbit_determination_date" : "2017-04-06 08:46:16",
        "orbit_uncertainty" : "7",
        "minimum_orbit_intersection" : "9.47932E-5",
        "jupiter_tisserand_invariant" : "6.995",
        "epoch_osculation" : "2458000.5",
        "eccentricity" : ".2868808454233409",
        "semi_major_axis" : ".8356079430738917",
        "inclination" : ".01451294322958202",
        "ascending_node_longitude" : "329.7859769942302",
        "orbital_period" : "278.9987556491343",
        "perihelion_distance" : ".5958880299223948",
        "perihelion_argument" : "19.63816192416132",
        "aphelion_distance" : "1.075327856225389",
        "perihelion_time" : "2457890.533974723250",
        "mean_anomaly" : "141.8922783634752",
        "mean_motion" : "1.29032833555979",
        "equinox" : "J2000"
      }
    } ]
  }
}